start=new Date('2021-12-29T00:00:00.000Z').valueOf();
sats=[{"MEAN_ANOMALY":"28.1572","REV_AT_EPOCH":"363","PERIAPSIS":"443.457","LAUNCH_DATE":"2021-12-02","PERIOD":"93.477","MEAN_MOTION_DOT":"-0.00018540","REF_FRAME":"TEME","OBJECT_TYPE":"PAYLOAD","OBJECT_NAME":"STARLINK-3236","TIME_SYSTEM":"UTC","SEMIMAJOR_AXIS":"6822.827","TLE_LINE2":"2 49750  53.2157 194.9211 0001809  40.0652  28.1572 15.40480684  3639","NORAD_CAT_ID":"49750","TLE_LINE1":"1 49750U 21115AC  21362.91667824 -.00018540  00000-0 -44180-3 0  9992","RA_OF_ASC_NODE":"194.9211","RCS_SIZE":"LARGE","INCLINATION":"53.2157","EPOCH":"2021-12-28T22:00:00.999936","FILE":"3254265","SITE":"AFETR","COUNTRY_CODE":"US","DECAY_DATE":null,"MEAN_MOTION_DDOT":"0.0000000000000","GP_ID":"192676870","ARG_OF_PERICENTER":"40.0652","CLASSIFICATION_TYPE":"U","ELEMENT_SET_NO":"999","APOAPSIS":"445.926","CENTER_NAME":"EARTH","EPHEMERIS_TYPE":"0","ECCENTRICITY":"0.00018090","MEAN_MOTION":"15.40480684","OBJECT_ID":"2021-115AC","BSTAR":"-0.00044180000000","MEAN_ELEMENT_THEORY":"SGP4"},{"MEAN_MOTION_DDOT":"0.0000000000000","DECAY_DATE":null,"COUNTRY_CODE":"US","SITE":"AFETR","FILE":"3253984","MEAN_ELEMENT_THEORY":"SGP4","BSTAR":"0.00078904000000","ECCENTRICITY":"0.00019570","OBJECT_ID":"2021-115AD","MEAN_MOTION":"15.40437422","CENTER_NAME":"EARTH","APOAPSIS":"446.155","EPHEMERIS_TYPE":"0","ARG_OF_PERICENTER":"37.3166","CLASSIFICATION_TYPE":"U","ELEMENT_SET_NO":"999","GP_ID":"192646838","REF_FRAME":"TEME","OBJECT_TYPE":"PAYLOAD","PERIOD":"93.480","MEAN_MOTION_DOT":"0.00032156","PERIAPSIS":"443.484","LAUNCH_DATE":"2021-12-02","REV_AT_EPOCH":"526","MEAN_ANOMALY":"34.0795","EPOCH":"2021-12-28T22:00:00.999936","INCLINATION":"53.2139","TLE_LINE1":"1 49751U 21115AD  21362.91667824  .00032156  00000-0  78904-3 0  9991","RA_OF_ASC_NODE":"194.9144","RCS_SIZE":"LARGE","TLE_LINE2":"2 49751  53.2139 194.9144 0001957  37.3166  34.0795 15.40437422  5264","NORAD_CAT_ID":"49751","SEMIMAJOR_AXIS":"6822.954","OBJECT_NAME":"STARLINK-3229","TIME_SYSTEM":"UTC"},{"REF_FRAME":"TEME","OBJECT_TYPE":"PAYLOAD","PERIOD":"93.479","MEAN_MOTION_DOT":"0.00031312","LAUNCH_DATE":"2021-12-02","PERIAPSIS":"443.308","REV_AT_EPOCH":"363","MEAN_ANOMALY":"29.3864","EPOCH":"2021-12-28T22:00:00.999936","INCLINATION":"53.2156","RA_OF_ASC_NODE":"194.9249","TLE_LINE1":"1 49752U 21115AE  21362.91667824  .00031312  00000-0  76821-3 0  9991","RCS_SIZE":"LARGE","TLE_LINE2":"2 49752  53.2156 194.9249 0002136  36.6593  29.3864 15.40455789  3635","NORAD_CAT_ID":"49752","SEMIMAJOR_AXIS":"6822.900","OBJECT_NAME":"STARLINK-3209","TIME_SYSTEM":"UTC","MEAN_MOTION_DDOT":"0.0000000000000","DECAY_DATE":null,"COUNTRY_CODE":"US","FILE":"3254265","SITE":"AFETR","BSTAR":"0.00076821000000","MEAN_ELEMENT_THEORY":"SGP4","ECCENTRICITY":"0.00021360","OBJECT_ID":"2021-115AE","MEAN_MOTION":"15.40455789","CENTER_NAME":"EARTH","APOAPSIS":"446.223","EPHEMERIS_TYPE":"0","CLASSIFICATION_TYPE":"U","ARG_OF_PERICENTER":"36.6593","ELEMENT_SET_NO":"999","GP_ID":"192677366"},{"SITE":"AFETR","FILE":"3254265","COUNTRY_CODE":"US","MEAN_MOTION_DDOT":"0.0000000000000","DECAY_DATE":null,"ARG_OF_PERICENTER":"41.3004","CLASSIFICATION_TYPE":"U","ELEMENT_SET_NO":"999","GP_ID":"192676623","APOAPSIS":"445.971","CENTER_NAME":"EARTH","EPHEMERIS_TYPE":"0","ECCENTRICITY":"0.00017310","OBJECT_ID":"2021-115AF","MEAN_MOTION":"15.40447498","BSTAR":"0.00072595000000","MEAN_ELEMENT_THEORY":"SGP4","MEAN_ANOMALY":"27.9732","REV_AT_EPOCH":"363","PERIOD":"93.479","MEAN_MOTION_DOT":"0.00029552","PERIAPSIS":"443.609","LAUNCH_DATE":"2021-12-02","REF_FRAME":"TEME","OBJECT_TYPE":"PAYLOAD","TLE_LINE2":"2 49753  53.2158 194.9192 0001731  41.3004  27.9732 15.40447498  3631","NORAD_CAT_ID":"49753","SEMIMAJOR_AXIS":"6822.925","TIME_SYSTEM":"UTC","OBJECT_NAME":"STARLINK-3200","TLE_LINE1":"1 49753U 21115AF  21362.91667824  .00029552  00000-0  72595-3 0  9999","RA_OF_ASC_NODE":"194.9192","RCS_SIZE":"LARGE","INCLINATION":"53.2158","EPOCH":"2021-12-28T22:00:00.999936"},{"NORAD_CAT_ID":"49754","TLE_LINE2":"2 49754  53.2154 194.9288 0001845  39.0940  24.9254 15.40482340  3634","SEMIMAJOR_AXIS":"6822.822","OBJECT_NAME":"STARLINK-3193","TIME_SYSTEM":"UTC","RCS_SIZE":"LARGE","RA_OF_ASC_NODE":"194.9288","TLE_LINE1":"1 49754U 21115AG  21362.91667824 -.00019851  00000-0 -47381-3 0  9998","INCLINATION":"53.2154","EPOCH":"2021-12-28T22:00:00.999936","MEAN_ANOMALY":"24.9254","REV_AT_EPOCH":"363","MEAN_MOTION_DOT":"-0.00019851","PERIOD":"93.477","PERIAPSIS":"443.428","LAUNCH_DATE":"2021-12-02","OBJECT_TYPE":"PAYLOAD","REF_FRAME":"TEME","ELEMENT_SET_NO":"999","CLASSIFICATION_TYPE":"U","ARG_OF_PERICENTER":"39.0940","GP_ID":"192676374","EPHEMERIS_TYPE":"0","APOAPSIS":"445.946","CENTER_NAME":"EARTH","OBJECT_ID":"2021-115AG","MEAN_MOTION":"15.40482340","ECCENTRICITY":"0.00018450","MEAN_ELEMENT_THEORY":"SGP4","BSTAR":"-0.00047381000000","FILE":"3254265","SITE":"AFETR","COUNTRY_CODE":"US","MEAN_MOTION_DDOT":"0.0000000000000","DECAY_DATE":null},{"EPHEMERIS_TYPE":"0","CENTER_NAME":"EARTH","APOAPSIS":"446.060","ELEMENT_SET_NO":"999","ARG_OF_PERICENTER":"46.3573","CLASSIFICATION_TYPE":"U","GP_ID":"192647358","BSTAR":"0.00076738000000","MEAN_ELEMENT_THEORY":"SGP4","OBJECT_ID":"2021-115AH","MEAN_MOTION":"15.40450203","ECCENTRICITY":"0.00018740","COUNTRY_CODE":"US","SITE":"AFETR","FILE":"3253985","MEAN_MOTION_DDOT":"0.0000000000000","DECAY_DATE":null,"RCS_SIZE":"LARGE","RA_OF_ASC_NODE":"194.9223","TLE_LINE1":"1 49755U 21115AH  21362.91667824  .00031272  00000-0  76738-3 0  9996","TLE_LINE2":"2 49755  53.2138 194.9223 0001874  46.3573  20.7602 15.40450203  5266","NORAD_CAT_ID":"49755","SEMIMAJOR_AXIS":"6822.917","TIME_SYSTEM":"UTC","OBJECT_NAME":"STARLINK-3210","EPOCH":"2021-12-28T22:00:00.999936","INCLINATION":"53.2138","REV_AT_EPOCH":"526","MEAN_ANOMALY":"20.7602","OBJECT_TYPE":"PAYLOAD","REF_FRAME":"TEME","MEAN_MOTION_DOT":"0.00031272","PERIOD":"93.479","PERIAPSIS":"443.503","LAUNCH_DATE":"2021-12-02"},{"DECAY_DATE":null,"MEAN_MOTION_DDOT":"0.0000000000000","COUNTRY_CODE":"US","SITE":"AFETR","FILE":"3254265","BSTAR":"-0.00031909000000","MEAN_ELEMENT_THEORY":"SGP4","ECCENTRICITY":"0.00023300","MEAN_MOTION":"15.40477624","OBJECT_ID":"2021-115AJ","CENTER_NAME":"EARTH","APOAPSIS":"446.290","EPHEMERIS_TYPE":"0","GP_ID":"192677862","CLASSIFICATION_TYPE":"U","ARG_OF_PERICENTER":"29.7312","ELEMENT_SET_NO":"999","REF_FRAME":"TEME","OBJECT_TYPE":"PAYLOAD","LAUNCH_DATE":"2021-12-02","PERIAPSIS":"443.111","PERIOD":"93.478","MEAN_MOTION_DOT":"-0.00013511","REV_AT_EPOCH":"363","MEAN_ANOMALY":"32.1900","EPOCH":"2021-12-28T22:00:00.999936","INCLINATION":"53.2154","RA_OF_ASC_NODE":"194.9328","TLE_LINE1":"1 49756U 21115AJ  21362.91667824 -.00013511  00000-0 -31909-3 0  9996","RCS_SIZE":"LARGE","TIME_SYSTEM":"UTC","OBJECT_NAME":"STARLINK-3207","TLE_LINE2":"2 49756  53.2154 194.9328 0002330  29.7312  32.1900 15.40477624  3638","SEMIMAJOR_AXIS":"6822.836","NORAD_CAT_ID":"49756"},{"REV_AT_EPOCH":"363","MEAN_ANOMALY":"23.6785","OBJECT_TYPE":"PAYLOAD","REF_FRAME":"TEME","PERIAPSIS":"443.250","LAUNCH_DATE":"2021-12-02","MEAN_MOTION_DOT":"-0.00014276","PERIOD":"93.478","RCS_SIZE":"LARGE","RA_OF_ASC_NODE":"194.9274","TLE_LINE1":"1 49757U 21115AK  21362.91667824 -.00014276  00000-0 -33778-3 0  9992","OBJECT_NAME":"STARLINK-3197","TIME_SYSTEM":"UTC","SEMIMAJOR_AXIS":"6822.837","TLE_LINE2":"2 49757  53.2159 194.9274 0002129  41.3633  23.6785 15.40477074  3631","NORAD_CAT_ID":"49757","EPOCH":"2021-12-28T22:00:00.999936","INCLINATION":"53.2159","COUNTRY_CODE":"US","SITE":"AFETR","FILE":"3254265","DECAY_DATE":null,"MEAN_MOTION_DDOT":"0.0000000000000","EPHEMERIS_TYPE":"0","APOAPSIS":"446.155","CENTER_NAME":"EARTH","GP_ID":"192676126","ELEMENT_SET_NO":"999","ARG_OF_PERICENTER":"41.3633","CLASSIFICATION_TYPE":"U","BSTAR":"-0.00033778000000","MEAN_ELEMENT_THEORY":"SGP4","MEAN_MOTION":"15.40477074","OBJECT_ID":"2021-115AK","ECCENTRICITY":"0.00021290"},{"MEAN_ANOMALY":"24.0924","REV_AT_EPOCH":"526","LAUNCH_DATE":"2021-12-02","PERIAPSIS":"443.429","MEAN_MOTION_DOT":"0.00029109","PERIOD":"93.479","OBJECT_TYPE":"PAYLOAD","REF_FRAME":"TEME","OBJECT_NAME":"STARLINK-3194","TIME_SYSTEM":"UTC","TLE_LINE2":"2 49758  53.2153 194.9367 0001949  35.6843  24.0924 15.40457967  5267","NORAD_CAT_ID":"49758","SEMIMAJOR_AXIS":"6822.894","RCS_SIZE":"LARGE","TLE_LINE1":"1 49758U 21115AL  21362.91667824  .00029109  00000-0  71501-3 0  9998","RA_OF_ASC_NODE":"194.9367","INCLINATION":"53.2153","EPOCH":"2021-12-28T22:00:00.999936","SITE":"AFETR","FILE":"3253985","COUNTRY_CODE":"US","DECAY_DATE":null,"MEAN_MOTION_DDOT":"0.0000000000000","GP_ID":"192646851","ELEMENT_SET_NO":"999","CLASSIFICATION_TYPE":"U","ARG_OF_PERICENTER":"35.6843","EPHEMERIS_TYPE":"0","APOAPSIS":"446.089","CENTER_NAME":"EARTH","OBJECT_ID":"2021-115AL","MEAN_MOTION":"15.40457967","ECCENTRICITY":"0.00019490","MEAN_ELEMENT_THEORY":"SGP4","BSTAR":"0.00071501000000"},{"OBJECT_NAME":"STARLINK-3204","TIME_SYSTEM":"UTC","TLE_LINE2":"2 49759  53.2158 194.9314 0002004  45.7333  17.2039 15.40477765  3632","NORAD_CAT_ID":"49759","SEMIMAJOR_AXIS":"6822.835","RCS_SIZE":"MEDIUM","TLE_LINE1":"1 49759U 21115AM  21362.91667824 -.00012087  00000-0 -28440-3 0  9992","RA_OF_ASC_NODE":"194.9314","INCLINATION":"53.2158","EPOCH":"2021-12-28T22:00:00.999936","MEAN_ANOMALY":"17.2039","REV_AT_EPOCH":"363","PERIAPSIS":"443.333","LAUNCH_DATE":"2021-12-02","MEAN_MOTION_DOT":"-0.00012087","PERIOD":"93.477","OBJECT_TYPE":"PAYLOAD","REF_FRAME":"TEME","GP_ID":"192677615","ELEMENT_SET_NO":"999","ARG_OF_PERICENTER":"45.7333","CLASSIFICATION_TYPE":"U","EPHEMERIS_TYPE":"0","CENTER_NAME":"EARTH","APOAPSIS":"446.068","OBJECT_ID":"2021-115AM","MEAN_MOTION":"15.40477765","ECCENTRICITY":"0.00020040","BSTAR":"-0.00028440000000","MEAN_ELEMENT_THEORY":"SGP4","SITE":"AFETR","FILE":"3254265","COUNTRY_CODE":"US","DECAY_DATE":null,"MEAN_MOTION_DDOT":"0.0000000000000"}];
